[{"OBJECT_NAME":"STARLINK-35885","OBJECT_ID":"2025-283N","EPOCH":"2026-02-28T06:43:08.711616","MEAN_MOTION":15.30207734,"ECCENTRICITY":0.00011066,"INCLINATION":53.1613,"RA_OF_ASC_NODE":67.8593,"ARG_OF_PERICENTER":81.7632,"MEAN_ANOMALY":278.3494,"EPHEMERIS_TYPE":0,"CLASSIFICATION_TYPE":"U","NORAD_CAT_ID":66890,"ELEMENT_SET_NO":999,"REV_AT_EPOCH":1440,"BSTAR":0.00063182247,"MEAN_MOTION_DOT":0.00018404,"MEAN_MOTION_DDOT":0},{"OBJECT_NAME":"STARLINK-35855","OBJECT_ID":"2025-283P","EPOCH":"2026-02-28T06:38:35.424960","MEAN_MOTION":15.30200329,"ECCENTRICITY":0.00015148,"INCLINATION":53.161,"RA_OF_ASC_NODE":67.8413,"ARG_OF_PERICENTER":84.169,"MEAN_ANOMALY":275.9484,"EPHEMERIS_TYPE":0,"CLASSIFICATION_TYPE":"U","NORAD_CAT_ID":66891,"ELEMENT_SET_NO":999,"REV_AT_EPOCH":1440,"BSTAR":0.00080161784,"MEAN_MOTION_DOT":0.00023458,"MEAN_MOTION_DDOT":0},{"OBJECT_NAME":"STARLINK-35883","OBJECT_ID":"2025-283Q","EPOCH":"2026-02-28T04:59:59.272224","MEAN_MOTION":15.30191248,"ECCENTRICITY":7.935e-5,"INCLINATION":53.1614,"RA_OF_ASC_NODE":68.1215,"ARG_OF_PERICENTER":82.9153,"MEAN_ANOMALY":277.1938,"EPHEMERIS_TYPE":0,"CLASSIFICATION_TYPE":"U","NORAD_CAT_ID":66892,"ELEMENT_SET_NO":999,"REV_AT_EPOCH":1439,"BSTAR":0.00087517734,"MEAN_MOTION_DOT":0.00025644,"MEAN_MOTION_DDOT":0},{"OBJECT_NAME":"STARLINK-36033","OBJECT_ID":"2025-283R","EPOCH":"2026-02-28T07:34:48.825696","MEAN_MOTION":15.30210105,"ECCENTRICITY":0.00012283,"INCLINATION":53.1596,"RA_OF_ASC_NODE":68.0867,"ARG_OF_PERICENTER":104.0492,"MEAN_ANOMALY":256.0645,"EPHEMERIS_TYPE":0,"CLASSIFICATION_TYPE":"U","NORAD_CAT_ID":66893,"ELEMENT_SET_NO":999,"REV_AT_EPOCH":1440,"BSTAR":0.0010355966,"MEAN_MOTION_DOT":0.00030448,"MEAN_MOTION_DDOT":0},{"OBJECT_NAME":"STARLINK-35718","OBJECT_ID":"2025-283S","EPOCH":"2026-02-28T04:50:51.545472","MEAN_MOTION":15.30204666,"ECCENTRICITY":0.0001334,"INCLINATION":53.1603,"RA_OF_ASC_NODE":68.0834,"ARG_OF_PERICENTER":94.7876,"MEAN_ANOMALY":265.3277,"EPHEMERIS_TYPE":0,"CLASSIFICATION_TYPE":"U","NORAD_CAT_ID":66894,"ELEMENT_SET_NO":999,"REV_AT_EPOCH":1439,"BSTAR":0.00069949771,"MEAN_MOTION_DOT":0.00020418,"MEAN_MOTION_DDOT":0},{"OBJECT_NAME":"STARLINK-35971","OBJECT_ID":"2025-283T","EPOCH":"2026-02-28T07:19:36.970464","MEAN_MOTION":15.30200046,"ECCENTRICITY":0.00013373,"INCLINATION":53.16,"RA_OF_ASC_NODE":68.021,"ARG_OF_PERICENTER":86.3425,"MEAN_ANOMALY":273.7729,"EPHEMERIS_TYPE":0,"CLASSIFICATION_TYPE":"U","NORAD_CAT_ID":66895,"ELEMENT_SET_NO":999,"REV_AT_EPOCH":1440,"BSTAR":0.00076237466,"MEAN_MOTION_DOT":0.00022288,"MEAN_MOTION_DDOT":0},{"OBJECT_NAME":"STARLINK-35791","OBJECT_ID":"2025-283U","EPOCH":"2026-02-28T06:09:42.832800","MEAN_MOTION":15.30205604,"ECCENTRICITY":0.0001103,"INCLINATION":53.1589,"RA_OF_ASC_NODE":67.7142,"ARG_OF_PERICENTER":110.6888,"MEAN_ANOMALY":249.4231,"EPHEMERIS_TYPE":0,"CLASSIFICATION_TYPE":"U","NORAD_CAT_ID":66896,"ELEMENT_SET_NO":999,"REV_AT_EPOCH":1440,"BSTAR":0.0006567774,"MEAN_MOTION_DOT":0.00019146,"MEAN_MOTION_DDOT":0},{"OBJECT_NAME":"STARLINK-36079","OBJECT_ID":"2025-283V","EPOCH":"2026-02-28T07:10:30.050688","MEAN_MOTION":15.30199,"ECCENTRICITY":0.00012359,"INCLINATION":53.1605,"RA_OF_ASC_NODE":67.9822,"ARG_OF_PERICENTER":75.8965,"MEAN_ANOMALY":284.2173,"EPHEMERIS_TYPE":0,"CLASSIFICATION_TYPE":"U","NORAD_CAT_ID":66897,"ELEMENT_SET_NO":999,"REV_AT_EPOCH":1439,"BSTAR":0.00087487479,"MEAN_MOTION_DOT":0.00025641,"MEAN_MOTION_DDOT":0},{"OBJECT_NAME":"STARLINK-36065","OBJECT_ID":"2025-283W","EPOCH":"2026-02-28T07:07:27.737184","MEAN_MOTION":15.30194942,"ECCENTRICITY":0.00013902,"INCLINATION":53.1606,"RA_OF_ASC_NODE":67.9671,"ARG_OF_PERICENTER":87.2783,"MEAN_ANOMALY":272.8377,"EPHEMERIS_TYPE":0,"CLASSIFICATION_TYPE":"U","NORAD_CAT_ID":66898,"ELEMENT_SET_NO":999,"REV_AT_EPOCH":1440,"BSTAR":0.00070854125,"MEAN_MOTION_DOT":0.00020681,"MEAN_MOTION_DDOT":0},{"OBJECT_NAME":"STARLINK-36064","OBJECT_ID":"2025-283X","EPOCH":"2026-02-28T05:30:21.976992","MEAN_MOTION":15.30211556,"ECCENTRICITY":0.00015772,"INCLINATION":53.1606,"RA_OF_ASC_NODE":68.2562,"ARG_OF_PERICENTER":132.3261,"MEAN_ANOMALY":227.7873,"EPHEMERIS_TYPE":0,"CLASSIFICATION_TYPE":"U","NORAD_CAT_ID":66899,"ELEMENT_SET_NO":999,"REV_AT_EPOCH":1439,"BSTAR":0.00081435698,"MEAN_MOTION_DOT":0.00023846,"MEAN_MOTION_DDOT":0},{"OBJECT_NAME":"STARLINK-36074","OBJECT_ID":"2025-283Y","EPOCH":"2026-02-28T06:59:51.813024","MEAN_MOTION":15.30196163,"ECCENTRICITY":0.00012586,"INCLINATION":53.1612,"RA_OF_ASC_NODE":67.9337,"ARG_OF_PERICENTER":93.0413,"MEAN_ANOMALY":267.0732,"EPHEMERIS_TYPE":0,"CLASSIFICATION_TYPE":"U","NORAD_CAT_ID":66900,"ELEMENT_SET_NO":999,"REV_AT_EPOCH":1440,"BSTAR":0.00084289085,"MEAN_MOTION_DOT":0.00024685,"MEAN_MOTION_DDOT":0},{"OBJECT_NAME":"STARLINK-36043","OBJECT_ID":"2025-283Z","EPOCH":"2026-02-28T06:50:44.773152","MEAN_MOTION":15.3020725,"ECCENTRICITY":0.00019302,"INCLINATION":53.1612,"RA_OF_ASC_NODE":67.8911,"ARG_OF_PERICENTER":94.4762,"MEAN_ANOMALY":265.6459,"EPHEMERIS_TYPE":0,"CLASSIFICATION_TYPE":"U","NORAD_CAT_ID":66901,"ELEMENT_SET_NO":999,"REV_AT_EPOCH":1440,"BSTAR":0.00069994665,"MEAN_MOTION_DOT":0.00020433,"MEAN_MOTION_DDOT":0},{"OBJECT_NAME":"STARLINK-35983","OBJECT_ID":"2025-283AA","EPOCH":"2026-02-28T06:46:11.255808","MEAN_MOTION":15.30200162,"ECCENTRICITY":0.00013871,"INCLINATION":53.1613,"RA_OF_ASC_NODE":67.8713,"ARG_OF_PERICENTER":94.9882,"MEAN_ANOMALY":265.1277,"EPHEMERIS_TYPE":0,"CLASSIFICATION_TYPE":"U","NORAD_CAT_ID":66902,"ELEMENT_SET_NO":999,"REV_AT_EPOCH":1440,"BSTAR":0.00088172069,"MEAN_MOTION_DOT":0.00025846,"MEAN_MOTION_DDOT":0},{"OBJECT_NAME":"STARLINK-36077","OBJECT_ID":"2025-283AB","EPOCH":"2026-02-28T06:41:37.647744","MEAN_MOTION":15.30207393,"ECCENTRICITY":0.00011169,"INCLINATION":53.1618,"RA_OF_ASC_NODE":67.8514,"ARG_OF_PERICENTER":32.1457,"MEAN_ANOMALY":327.9612,"EPHEMERIS_TYPE":0,"CLASSIFICATION_TYPE":"U","NORAD_CAT_ID":66903,"ELEMENT_SET_NO":999,"REV_AT_EPOCH":1440,"BSTAR":0.0007215681,"MEAN_MOTION_DOT":0.00021077,"MEAN_MOTION_DDOT":0},{"OBJECT_NAME":"STARLINK-36059","OBJECT_ID":"2025-283AC","EPOCH":"2026-02-28T06:37:04.138176","MEAN_MOTION":15.30202039,"ECCENTRICITY":0.0001539,"INCLINATION":53.1619,"RA_OF_ASC_NODE":67.83,"ARG_OF_PERICENTER":87.8191,"MEAN_ANOMALY":272.2986,"EPHEMERIS_TYPE":0,"CLASSIFICATION_TYPE":"U","NORAD_CAT_ID":66904,"ELEMENT_SET_NO":999,"REV_AT_EPOCH":1440,"BSTAR":0.00042534972,"MEAN_MOTION_DOT":0.0001226,"MEAN_MOTION_DDOT":0},{"OBJECT_NAME":"STARLINK-36075","OBJECT_ID":"2025-283AD","EPOCH":"2026-02-28T05:59:14.276256","MEAN_MOTION":15.30200501,"ECCENTRICITY":0.00014568,"INCLINATION":53.16,"RA_OF_ASC_NODE":68.38,"ARG_OF_PERICENTER":103.4929,"MEAN_ANOMALY":256.6234,"EPHEMERIS_TYPE":0,"CLASSIFICATION_TYPE":"U","NORAD_CAT_ID":66905,"ELEMENT_SET_NO":999,"REV_AT_EPOCH":1439,"BSTAR":0.0005713191,"MEAN_MOTION_DOT":0.000166,"MEAN_MOTION_DDOT":0}]
