STARLINK-35885          
1 66890U 25283N   26059.27996194  .00018404  00000+0  63182-3 0  9997
2 66890  53.1613  67.8593 0001106  81.7632 278.3494 15.30207734 14401
STARLINK-35855          
1 66891U 25283P   26059.27679890  .00023458  00000+0  80162-3 0  9991
2 66891  53.1610  67.8413 0001514  84.1690 275.9484 15.30200329 14409
STARLINK-35883          
1 66892U 25283Q   26059.20832491  .00025644  00000+0  87518-3 0  9994
2 66892  53.1614  68.1215 0000793  82.9153 277.1938 15.30191248 14391
STARLINK-36033          
1 66893U 25283R   26059.31584289  .00030448  00000+0  10356-2 0  9999
2 66893  53.1596  68.0867 0001228 104.0492 256.0645 15.30210105 14406
STARLINK-35718          
1 66894U 25283S   26059.20198548  .00020418  00000+0  69950-3 0  9998
2 66894  53.1603  68.0834 0001334  94.7876 265.3277 15.30204666 14396
STARLINK-35971          
1 66895U 25283T   26059.30528901  .00022288  00000+0  76237-3 0  9993
2 66895  53.1600  68.0210 0001337  86.3425 273.7729 15.30200046 14407
STARLINK-35791          
1 66896U 25283U   26059.25674575  .00019146  00000+0  65678-3 0  9993
2 66896  53.1589  67.7142 0001103 110.6888 249.4231 15.30205604 14402
STARLINK-36079          
1 66897U 25283V   26059.29895892  .00025641  00000+0  87487-3 0  9994
2 66897  53.1605  67.9822 0001235  75.8965 284.2173 15.30199000 14395
STARLINK-36065          
1 66898U 25283W   26059.29684881  .00020681  00000+0  70854-3 0  9998
2 66898  53.1606  67.9671 0001390  87.2783 272.8377 15.30194942 14407
STARLINK-36064          
1 66899U 25283X   26059.22942103  .00023846  00000+0  81436-3 0  9990
2 66899  53.1606  68.2562 0001577 132.3261 227.7873 15.30211556 14390
STARLINK-36074          
1 66900U 25283Y   26059.29157191  .00024685  00000+0  84289-3 0  9996
2 66900  53.1612  67.9337 0001258  93.0413 267.0732 15.30196163 14403
STARLINK-36043          
1 66901U 25283Z   26059.28524043  .00020433  00000+0  69995-3 0  9994
2 66901  53.1612  67.8911 0001930  94.4762 265.6459 15.30207250 14400
STARLINK-35983          
1 66902U 25283AA  26059.28207472  .00025846  00000+0  88172-3 0  9990
2 66902  53.1613  67.8713 0001387  94.9882 265.1277 15.30200162 14404
STARLINK-36077          
1 66903U 25283AB  26059.27890796  .00021077  00000+0  72157-3 0  9995
2 66903  53.1618  67.8514 0001116  32.1457 327.9612 15.30207393 14404
STARLINK-36059          
1 66904U 25283AC  26059.27574234  .00012260  00000+0  42535-3 0  9993
2 66904  53.1619  67.8300 0001539  87.8191 272.2986 15.30202039 14408
STARLINK-36075          
1 66905U 25283AD  26059.24947079  .00016600  00000+0  57132-3 0  9993
2 66905  53.1600  68.3800 0001456 103.4929 256.6234 15.30200501 14394
